OBJECT_NAME,OBJECT_ID,EPOCH,MEAN_MOTION,ECCENTRICITY,INCLINATION,RA_OF_ASC_NODE,ARG_OF_PERICENTER,MEAN_ANOMALY,EPHEMERIS_TYPE,CLASSIFICATION_TYPE,NORAD_CAT_ID,ELEMENT_SET_NO,REV_AT_EPOCH,BSTAR,MEAN_MOTION_DOT,MEAN_MOTION_DDOT
ONEWEB-0053,2020-008AC,2026-06-15T14:19:45.867360,13.10374840,.00021342,87.8832,36.6015,71.9334,288.2026,0,U,45157,999,30770,-.14333278E-2,-.488E-5,0
ONEWEB-0054,2020-008AD,2026-06-15T13:20:02.053248,13.10371211,.00018739,87.8841,36.5920,83.1116,277.0225,0,U,45158,999,30781,.18429557E-2,.656E-5,0
ONEWEB-0056,2020-008AE,2026-06-15T14:29:09.296448,13.10378386,.00020047,87.8844,36.5765,89.3155,270.8202,0,U,45159,999,30797,-.63183225E-3,-.208E-5,0
ONEWEB-0057,2020-008AF,2026-06-15T09:23:35.433312,13.10374408,.00021638,87.8839,36.6309,71.8157,288.3206,0,U,45160,999,30811,.16854678E-2,.601E-5,0
ONEWEB-0058,2020-008AG,2026-06-15T14:34:19.031808,13.10376029,.00015788,87.8834,36.5942,82.8811,277.2496,0,U,45161,999,30821,-.97767429E-4,-.21E-6,0
ONEWEB-0059,2020-008AH,2026-06-15T14:29:31.961760,13.10376229,.00016761,87.8834,36.5937,77.0037,283.1277,0,U,45162,999,30811,-.53504511E-3,-.174E-5,0
ONEWEB-0062,2020-008AJ,2026-06-15T09:32:45.449664,13.10373029,.00014554,87.8840,36.6218,93.5029,266.6264,0,U,45163,999,30795,.22362641E-2,.793E-5,0
ONEWEB-0065,2020-008AK,2026-06-15T14:00:26.418240,13.10371219,.00021487,87.8838,36.5927,80.5717,279.5653,0,U,45164,999,30767,-.141663E-2,-.482E-5,0
ONEWEB-0066,2020-020A,2026-06-15T13:04:00.308064,13.11415574,.00017016,87.8887,21.3981,80.9487,279.1834,0,U,45424,999,30246,-.13594192E-2,-.469E-5,0
ONEWEB-0067,2020-020B,2026-06-15T13:58:35.986080,13.11424434,.00019551,87.8908,21.3123,81.9586,278.1764,0,U,45425,999,30252,.16278684E-2,.59E-5,0
ONEWEB-0080,2020-020C,2026-06-15T13:57:56.845152,13.11417889,.00015765,87.8899,21.3870,92.9983,267.1325,0,U,45426,999,30249,.16409874E-2,.594E-5,0
ONEWEB-0090,2020-020D,2026-06-15T14:39:26.017056,13.11414077,.0001762,87.8896,21.3856,87.2410,272.8919,0,U,45427,999,30246,-.55894122E-3,-.185E-5,0
ONEWEB-0061,2020-020E,2026-06-15T13:35:33.240480,13.11420230,.00017519,87.8895,21.3793,84.6439,275.4889,0,U,45428,999,30241,.93975979E-4,.46E-6,0
ONEWEB-0081,2020-020F,2026-06-15T13:08:53.304288,13.11415934,.00018186,87.8891,21.3935,79.0734,281.0598,0,U,45429,999,30252,-.12865292E-2,-.443E-5,0
ONEWEB-0069,2020-020G,2026-06-15T13:11:31.462944,13.11415616,.00018253,87.8893,21.3959,82.6496,277.4839,0,U,45430,999,30245,-.12771121E-2,-.44E-5,0
ONEWEB-0031,2020-020H,2026-06-15T14:02:37.785120,13.11417965,.000171,87.8883,21.3940,90.2937,269.8387,0,U,45431,999,30244,.16976085E-2,.614E-5,0
ONEWEB-0027,2020-020J,2026-06-15T16:00:00.999936,13.17645191,.00017899,87.9139,6.1674,105.4210,255.4996,0,U,45432,999,526,-.11093013E+0,-.42854E-3,0
ONEWEB-0064,2020-020K,2026-06-15T14:00:11.579904,13.11416702,.0001787,87.8889,21.3861,90.8121,269.3212,0,U,45433,999,30247,.15668656E-2,.568E-5,0
ONEWEB-0018,2020-020L,2026-06-15T14:46:22.322496,13.11418108,.00014641,87.8888,21.3790,77.4164,282.7128,0,U,45434,999,30242,-.94731547E-3,-.323E-5,0
ONEWEB-0083,2020-020M,2026-06-15T14:32:07.514592,13.11414897,.00017163,87.8894,21.3747,86.3172,273.8152,0,U,45435,999,30246,.18418403E-4,.19E-6,0
ONEWEB-0095,2020-020N,2026-06-15T14:19:55.830144,13.11420268,.00024521,87.8895,21.3849,94.0741,266.0668,0,U,45436,999,30246,.10379704E-2,.381E-5,0
ONEWEB-0092,2020-020P,2026-06-15T13:13:46.932960,13.11423116,.00021582,87.8893,21.3856,85.1630,274.9744,0,U,45437,999,30257,-.11847644E-2,-.407E-5,0
ONEWEB-0085,2020-020Q,2026-06-15T14:31:43.375296,13.11414488,.00017935,87.8888,21.3815,85.6068,274.5265,0,U,45438,999,30246,.19810629E-3,.83E-6,0
ONEWEB-0096,2020-020R,2026-06-15T14:34:21.695520,13.11420726,.00018657,87.8896,21.3770,87.9396,272.1946,0,U,45439,999,30245,-.32424773E-3,-.102E-5,0
ONEWEB-0037,2020-020S,2026-06-15T08:03:50.950368,13.11914265,.00018929,87.8906,21.4047,85.9600,274.1745,0,U,45440,999,30245,-.38420887E-4,-.1E-7,0
ONEWEB-0042,2020-020T,2026-06-15T14:19:31.451520,13.11414886,.00018046,87.8898,21.3753,82.0113,278.1220,0,U,45441,999,30245,.87251529E-3,.322E-5,0
ONEWEB-0098,2020-020U,2026-06-15T14:13:37.236576,13.11416272,.00017422,87.8892,21.3856,86.8316,273.3012,0,U,45442,999,30243,.1490041E-2,.541E-5,0
ONEWEB-0055,2020-020V,2026-06-15T13:42:54.983808,13.11419288,.00017505,87.8896,21.3887,87.2875,272.8453,0,U,45443,999,30240,.80165646E-3,.297E-5,0
ONEWEB-0093,2020-020W,2026-06-15T13:13:58.175328,13.11416293,.00019412,87.8896,21.3858,73.5669,286.5672,0,U,45444,999,30246,-.13893157E-2,-.48E-5,0
ONEWEB-0029,2020-020X,2026-06-15T13:53:02.937408,13.11420834,.00017306,87.8884,21.3894,77.1529,282.9792,0,U,45445,999,30244,.1295553E-2,.472E-5,0
