ONEWEB-0053             
1 45157U 20008AC  26166.59705865 -.00000488  00000+0 -14333-2 0  9995
2 45157  87.8832  36.6015 0002134  71.9334 288.2026 13.10374840307704
ONEWEB-0054             
1 45158U 20008AD  26166.55557932  .00000656  00000+0  18430-2 0  9999
2 45158  87.8841  36.5920 0001873  83.1116 277.0225 13.10371211307819
ONEWEB-0056             
1 45159U 20008AE  26166.60357982 -.00000208  00000+0 -63183-3 0  9990
2 45159  87.8844  36.5765 0002004  89.3155 270.8202 13.10378386307971
ONEWEB-0057             
1 45160U 20008AF  26166.39138233  .00000601  00000+0  16855-2 0  9992
2 45160  87.8839  36.6309 0002163  71.8157 288.3206 13.10374408308112
ONEWEB-0058             
1 45161U 20008AG  26166.60716472 -.00000021  00000+0 -97767-4 0  9995
2 45161  87.8834  36.5942 0001578  82.8811 277.2496 13.10376029308218
ONEWEB-0059             
1 45162U 20008AH  26166.60384215 -.00000174  00000+0 -53505-3 0  9992
2 45162  87.8834  36.5937 0001676  77.0037 283.1277 13.10376229308112
ONEWEB-0062             
1 45163U 20008AJ  26166.39774826  .00000793  00000+0  22363-2 0  9992
2 45163  87.8840  36.6218 0001455  93.5029 266.6264 13.10373029307950
ONEWEB-0065             
1 45164U 20008AK  26166.58363910 -.00000482  00000+0 -14166-2 0  9991
2 45164  87.8838  36.5927 0002148  80.5717 279.5653 13.10371219307677
ONEWEB-0066             
1 45424U 20020A   26166.54444801 -.00000469  00000+0 -13594-2 0  9998
2 45424  87.8887  21.3981 0001701  80.9487 279.1834 13.11415574302467
ONEWEB-0067             
1 45425U 20020B   26166.58236095  .00000590  00000+0  16279-2 0  9993
2 45425  87.8908  21.3123 0001955  81.9586 278.1764 13.11424434302525
ONEWEB-0080             
1 45426U 20020C   26166.58190793  .00000594  00000+0  16410-2 0  9999
2 45426  87.8899  21.3870 0001576  92.9983 267.1325 13.11417889302499
ONEWEB-0090             
1 45427U 20020D   26166.61071779 -.00000185  00000+0 -55894-3 0  9994
2 45427  87.8896  21.3856 0001762  87.2410 272.8919 13.11414077302465
ONEWEB-0061             
1 45428U 20020E   26166.56635695  .00000046  00000+0  93976-4 0  9990
2 45428  87.8895  21.3793 0001751  84.6439 275.4889 13.11420230302413
ONEWEB-0081             
1 45429U 20020F   26166.54783917 -.00000443  00000+0 -12865-2 0  9999
2 45429  87.8891  21.3935 0001818  79.0734 281.0598 13.11415934302525
ONEWEB-0069             
1 45430U 20020G   26166.54966971 -.00000440  00000+0 -12771-2 0  9997
2 45430  87.8893  21.3959 0001825  82.6496 277.4839 13.11415616302454
ONEWEB-0031             
1 45431U 20020H   26166.58515955  .00000614  00000+0  16976-2 0  9996
2 45431  87.8883  21.3940 0001710  90.2937 269.8387 13.11417965302443
ONEWEB-0027             
1 45432U 20020J   26166.66667824 -.00042854  00000+0 -11093+0 0  9995
2 45432  87.9139   6.1674 0001789 105.4210 255.4996 13.17645191  5260
ONEWEB-0064             
1 45433U 20020K   26166.58346736  .00000568  00000+0  15669-2 0  9993
2 45433  87.8889  21.3861 0001787  90.8121 269.3212 13.11416702302471
ONEWEB-0018             
1 45434U 20020L   26166.61553614 -.00000323  00000+0 -94732-3 0  9993
2 45434  87.8888  21.3790 0001464  77.4164 282.7128 13.11418108302424
ONEWEB-0083             
1 45435U 20020M   26166.60564253  .00000019  00000+0  18418-4 0  9992
2 45435  87.8894  21.3747 0001716  86.3172 273.8152 13.11414897302465
ONEWEB-0095             
1 45436U 20020N   26166.59717396  .00000381  00000+0  10380-2 0  9999
2 45436  87.8895  21.3849 0002452  94.0741 266.0668 13.11420268302461
ONEWEB-0092             
1 45437U 20020P   26166.55123765 -.00000407  00000+0 -11848-2 0  9998
2 45437  87.8893  21.3856 0002158  85.1630 274.9744 13.11423116302579
ONEWEB-0085             
1 45438U 20020Q   26166.60536314  .00000083  00000+0  19811-3 0  9990
2 45438  87.8888  21.3815 0001793  85.6068 274.5265 13.11414488302467
ONEWEB-0096             
1 45439U 20020R   26166.60719555 -.00000102  00000+0 -32425-3 0  9991
2 45439  87.8896  21.3770 0001865  87.9396 272.1946 13.11420726302457
ONEWEB-0037             
1 45440U 20020S   26166.33600637 -.00000001  00000+0 -38421-4 0  9994
2 45440  87.8906  21.4047 0001892  85.9600 274.1745 13.11914265302450
ONEWEB-0042             
1 45441U 20020T   26166.59689180  .00000322  00000+0  87252-3 0  9992
2 45441  87.8898  21.3753 0001804  82.0113 278.1220 13.11414886302450
ONEWEB-0098             
1 45442U 20020U   26166.59279209  .00000541  00000+0  14900-2 0  9992
2 45442  87.8892  21.3856 0001742  86.8316 273.3012 13.11416272302432
ONEWEB-0055             
1 45443U 20020V   26166.57146972  .00000297  00000+0  80166-3 0  9997
2 45443  87.8896  21.3887 0001750  87.2875 272.8453 13.11419288302405
ONEWEB-0093             
1 45444U 20020W   26166.55136777 -.00000480  00000+0 -13893-2 0  9996
2 45444  87.8896  21.3858 0001941  73.5669 286.5672 13.11416293302469
ONEWEB-0029             
1 45445U 20020X   26166.57850622  .00000472  00000+0  12956-2 0  9999
2 45445  87.8884  21.3894 0001730  77.1529 282.9792 13.11420834302445
